     2.10           NAVIGATION DATA     GPS(GPS)            RINEX VERSION / TYPE
convertToRinex 1.14 convertToRINEX OPR  16-Jan-08 22:03 UTC PGM / RUN BY / DATE 
----------------------------------------------------------- COMMENT             
    0.7451D-08 -0.1490D-07 -0.5960D-07  0.1192D-06          ION ALPHA           
    0.8806D+05 -0.4915D+05 -0.1966D+06  0.3277D+06          ION BETA            
    0.159872115546D-13 0.558793544769D-08   503808      182 DELTA-UTC: A0,A1,T,W
    14                                                      LEAP SECONDS        
                                                            END OF HEADER       
 9 08  1 16 18  0  0.0 0.106017570943D-03 0.181898940355D-11 0.000000000000D+00
    0.570000000000D+02-0.497500000000D+02 0.406266922648D-08 0.184785882363D+01
   -0.277720391750D-05 0.194568594452D-01 0.845640897751D-05 0.515368978691D+04
    0.324000000000D+06 0.106170773506D-06-0.960277549860D+00-0.523403286934D-06
    0.969392560851D+00 0.222156250000D+03 0.138289742586D+01-0.775818030221D-08
    0.421803284086D-09 0.100000000000D+01 0.146200000000D+04 0.000000000000D+00
    0.240000000000D+01 0.000000000000D+00-0.558793544769D-08 0.570000000000D+02
    0.318138000000D+06 0.400000000000D+01 0.000000000000D+00 0.000000000000D+00
14 08  1 16 18  0  0.0-0.305092893541D-03 0.295585778076D-11 0.000000000000D+00
    0.320000000000D+02-0.598125000000D+02 0.380944439294D-08-0.138772820372D+01
   -0.314973294735D-05 0.375053135213D-02 0.671111047268D-05 0.515365286064D+04
    0.324000000000D+06 0.117346644402D-06-0.194438979932D+01 0.614672899246D-07
    0.988983661333D+00 0.266062500000D+03-0.210475470508D+01-0.784604110482D-08
   -0.139648674071D-09 0.100000000000D+01 0.146200000000D+04 0.000000000000D+00
    0.240000000000D+01 0.000000000000D+00-0.884756445885D-08 0.320000000000D+02
    0.318168000000D+06 0.400000000000D+01 0.000000000000D+00 0.000000000000D+00
20 08  1 16 18  0  0.0 0.122448429465D-03-0.795807864051D-12 0.000000000000D+00
    0.430000000000D+02 0.511250000000D+02 0.492734810097D-08 0.680210434341D+00
    0.261515378952D-05 0.348069367465D-02 0.307522714138D-05 0.515365891075D+04
    0.324000000000D+06-0.912696123123D-07-0.303309011601D+01-0.149011611938D-07
    0.949546491303D+00 0.313750000000D+03 0.128168166714D+01-0.858500045687D-08
   -0.117147736816D-09 0.100000000000D+01 0.146200000000D+04 0.000000000000D+00
    0.240000000000D+01 0.000000000000D+00-0.651925802231D-08 0.430000000000D+02
    0.318162000000D+06 0.400000000000D+01 0.000000000000D+00 0.000000000000D+00
30 08  1 16 18  0  0.0 0.601443462074D-04 0.147792889038D-11 0.000000000000D+00
    0.680000000000D+02-0.204375000000D+02 0.519735934802D-08 0.208399292781D+00
   -0.124610960484D-05 0.103449636372D-01 0.681355595589D-05 0.515367652130D+04
    0.324000000000D+06-0.670552253723D-07 0.850770059245D-01 0.353902578354D-07
    0.948086619019D+00 0.243187500000D+03 0.137014023161D+01-0.853678416275D-08
    0.203222750758D-09 0.100000000000D+01 0.146200000000D+04 0.000000000000D+00
    0.240000000000D+01 0.000000000000D+00-0.791624188423D-08 0.680000000000D+02
    0.318528000000D+06 0.400000000000D+01 0.000000000000D+00 0.000000000000D+00
 1 08  1 16 18  0  0.0 0.179457943887D-03 0.261479726760D-11 0.000000000000D+00
    0.240000000000D+02-0.653750000000D+02 0.367122434980D-08-0.219603091999D+01
   -0.341795384884D-05 0.712787220255D-02 0.672787427902D-05 0.515360194206D+04
    0.324000000000D+06 0.121071934700D-06-0.191573601643D+01-0.391155481339D-07
    0.990995671085D+00 0.265625000000D+03-0.178322953718D+01-0.766496213358D-08
   -0.109647424398D-09 0.100000000000D+01 0.146200000000D+04 0.000000000000D+00
    0.240000000000D+01 0.000000000000D+00-0.372529029846D-08 0.240000000000D+02
    0.318678000000D+06 0.400000000000D+01 0.000000000000D+00 0.000000000000D+00
28 08  1 16 17 59 44.0-0.137602910399D-04-0.568434188608D-12 0.000000000000D+00
    0.800000000000D+01-0.176250000000D+02 0.487984612232D-08-0.188196157114D+00
   -0.838190317154D-06 0.133470825385D-01 0.708550214767D-05 0.515370014191D+04
    0.323984000000D+06-0.521540641785D-07 0.149648975240D+00 0.175088644028D-06
    0.963260350586D+00 0.247125000000D+03-0.214304096528D+01-0.831820362943D-08
    0.227152318949D-09 0.100000000000D+01 0.146200000000D+04 0.000000000000D+00
    0.240000000000D+01 0.000000000000D+00-0.102445483208D-07 0.800000000000D+01
    0.318168000000D+06 0.400000000000D+01 0.000000000000D+00 0.000000000000D+00
12 08  1 16 18  0  0.0-0.354345887899D-03-0.909494701773D-12 0.000000000000D+00
    0.800000000000D+01-0.231250000000D+02 0.476055543910D-08-0.313161643735D+01
   -0.131502747536D-05 0.323109782767D-02 0.659003853798D-05 0.515368790436D+04
    0.324000000000D+06 0.521540641785D-07 0.124711059859D+00 0.147148966789D-06
    0.963348794224D+00 0.249656250000D+03-0.107534636744D+01-0.809105131048D-08
    0.269296931584D-09 0.100000000000D+01 0.146200000000D+04 0.000000000000D+00
    0.240000000000D+01 0.000000000000D+00-0.116415321827D-07 0.800000000000D+01
    0.318156000000D+06 0.400000000000D+01 0.000000000000D+00 0.000000000000D+00
17 08  1 16 18  0  0.0 0.442955642939D-04-0.682121026330D-12 0.000000000000D+00
    0.880000000000D+02-0.246875000000D+01 0.479805700119D-08-0.509687297539D+00
   -0.147148966789D-06 0.318611867260D-02 0.966340303421D-05 0.515370453835D+04
    0.324000000000D+06 0.409781932831D-07 0.118105773340D+01-0.260770320892D-07
    0.959347812756D+00 0.193312500000D+03-0.294357959787D+01-0.800247619240D-08
   -0.364300888880D-09 0.100000000000D+01 0.146200000000D+04 0.000000000000D+00
    0.340000000000D+01 0.000000000000D+00-0.977888703346D-08 0.880000000000D+02
    0.318138000000D+06 0.400000000000D+01 0.000000000000D+00 0.000000000000D+00
 2 08  1 16 18  0  0.0 0.166776590049D-03 0.295585778076D-11 0.000000000000D+00
    0.390000000000D+02 0.873750000000D+02 0.489020369661D-08-0.143214598514D+01
    0.464171171188D-05 0.876937725116D-02 0.911019742489D-05 0.515368048859D+04
    0.324000000000D+06-0.113621354103D-06 0.221073412590D+01-0.113621354103D-06
    0.944216994428D+00 0.195250000000D+03 0.244276525544D+01-0.826070123422D-08
   -0.382158775590D-10 0.100000000000D+01 0.146200000000D+04 0.000000000000D+00
    0.240000000000D+01 0.000000000000D+00-0.172294676304D-07 0.390000000000D+02
    0.318138000000D+06 0.400000000000D+01 0.000000000000D+00 0.000000000000D+00
 4 08  1 16 18  0  0.0-0.526546500623D-04-0.591171556152D-11 0.000000000000D+00
    0.820000000000D+02 0.995000000000D+02 0.484198740250D-08 0.118591562059D+01
    0.551901757717D-05 0.811351614539D-02 0.946782529354D-05 0.515370046425D+04
    0.324000000000D+06-0.223517417908D-07 0.222975103250D+01 0.968575477600D-07
    0.943575848636D+00 0.185843750000D+03 0.350725858328D+00-0.824891502899D-08
   -0.219652006531D-09 0.100000000000D+01 0.146200000000D+04 0.000000000000D+00
    0.240000000000D+01 0.000000000000D+00-0.605359673500D-08 0.820000000000D+02
    0.318138000000D+06 0.400000000000D+01 0.000000000000D+00 0.000000000000D+00
 5 08  1 16 18  0  0.0 0.649224501103D-03 0.169393388205D-10 0.000000000000D+00
    0.650000000000D+02-0.198437500000D+02 0.530772108789D-08 0.660169056451D+00
   -0.118650496006D-05 0.849470903631D-02 0.672787427902D-05 0.515365987015D+04
    0.324000000000D+06-0.484287738800D-07 0.344240613746D-01 0.856816768646D-07
    0.941888088825D+00 0.239562500000D+03 0.121898146201D+01-0.857035698977D-08
    0.230366738556D-09 0.100000000000D+01 0.146200000000D+04 0.000000000000D+00
    0.240000000000D+01 0.000000000000D+00-0.419095158577D-08 0.650000000000D+02
    0.318168000000D+06 0.400000000000D+01 0.000000000000D+00 0.000000000000D+00
 1 08  1 16 17 59 44.0 0.179447233677D-03 0.250111042988D-11 0.000000000000D+00
    0.500000000000D+01-0.653750000000D+02 0.367122434980D-08-0.219836598448D+01
   -0.341795384884D-05 0.712787138764D-02 0.672787427902D-05 0.515360194016D+04
    0.323984000000D+06 0.121071934700D-06-0.191573589793D+01-0.391155481339D-07
    0.990995662307D+00 0.265625000000D+03-0.178322827468D+01-0.766496213358D-08
   -0.109647424398D-09 0.100000000000D+01 0.146200000000D+04 0.000000000000D+00
    0.240000000000D+01 0.000000000000D+00-0.372529029846D-08 0.500000000000D+01
    0.321168000000D+06 0.400000000000D+01 0.000000000000D+00 0.000000000000D+00
29 08  1 16 18  0  0.0-0.782478600740D-04 0.932232069317D-11 0.000000000000D+00
    0.390000000000D+02-0.781250000000D+00 0.469983862429D-08 0.250162018917D+01
   -0.745058059692D-07 0.306347303558D-02 0.955723226070D-05 0.515834344482D+04
    0.324000000000D+06 0.931322574615D-08 0.118924868487D+01-0.242143869400D-07
    0.959412314277D+00 0.196000000000D+03-0.194488589386D+01-0.787997108957D-08
   -0.274297139863D-09 0.100000000000D+01 0.146200000000D+04 0.000000000000D+00
    0.240000000000D+01 0.000000000000D+00-0.121071934700D-07 0.390000000000D+02
    0.321852000000D+06 0.400000000000D+01 0.000000000000D+00 0.000000000000D+00
31 08  1 16 18  0  0.0-0.556465238333D-05-0.147792889038D-11 0.000000000000D+00
    0.840000000000D+02-0.415000000000D+02 0.420660379336D-08 0.273301661999D+01
   -0.209547579288D-05 0.672239693813D-02 0.896491110325D-05 0.515365347672D+04
    0.324000000000D+06 0.149011611938D-07-0.927136505677D+00 0.186264514923D-07
    0.965893687978D+00 0.207531250000D+03-0.129592256607D+01-0.777710966212D-08
    0.390373403476D-09 0.100000000000D+01 0.146200000000D+04 0.000000000000D+00
    0.240000000000D+01 0.000000000000D+00-0.130385160446D-07 0.840000000000D+02
    0.323262000000D+06 0.400000000000D+01 0.000000000000D+00 0.000000000000D+00
10 08  1 16 18  0  0.0-0.211468432099D-03-0.151203494170D-10 0.000000000000D+00
    0.220000000000D+02 0.475937500000D+02 0.451161649836D-08-0.793318470636D+00
    0.245869159698D-05 0.793995661661D-02 0.339746475220D-05 0.515375887108D+04
    0.324000000000D+06 0.195577740669D-06-0.299254165050D+01 0.119209289551D-06
    0.965964513694D+00 0.315218750000D+03 0.514829530659D+00-0.833177562333D-08
   -0.120362156424D-09 0.100000000000D+01 0.146200000000D+04 0.000000000000D+00
    0.240000000000D+01 0.000000000000D+00-0.232830643654D-08 0.220000000000D+02
    0.323382000000D+06 0.400000000000D+01 0.000000000000D+00 0.000000000000D+00
 6 08  1 16 18  0  0.0 0.149890780449D-03-0.156887836056D-10 0.000000000000D+00
    0.550000000000D+02-0.634375000000D+01 0.532700760553D-08 0.217138616169D+01
   -0.409781932831D-06 0.521381129511D-02 0.900588929653D-05 0.515508040428D+04
    0.324000000000D+06 0.391155481339D-07 0.113132592545D+01-0.689178705215D-07
    0.933191380241D+00 0.192750000000D+03-0.175832355730D+01-0.821927093705D-08
   -0.273225666660D-09 0.100000000000D+01 0.146200000000D+04 0.000000000000D+00
    0.240000000000D+01 0.000000000000D+00-0.465661287308D-08 0.550000000000D+02
    0.323622000000D+06 0.400000000000D+01 0.000000000000D+00 0.000000000000D+00
